[{"OBJECT_NAME":"FLOCK 4H-10","OBJECT_ID":"2025-276AZ","EPOCH":"2026-04-05T12:15:40.822560","MEAN_MOTION":15.19005441,"ECCENTRICITY":0.00031905,"INCLINATION":97.422,"RA_OF_ASC_NODE":170.247,"ARG_OF_PERICENTER":246.2451,"MEAN_ANOMALY":113.8449,"EPHEMERIS_TYPE":0,"CLASSIFICATION_TYPE":"U","NORAD_CAT_ID":66713,"ELEMENT_SET_NO":999,"REV_AT_EPOCH":1938,"BSTAR":0.00038417794,"MEAN_MOTION_DOT":7.976e-5,"MEAN_MOTION_DDOT":0},{"OBJECT_NAME":"FLOCK 4H-11","OBJECT_ID":"2025-276BA","EPOCH":"2026-04-05T04:06:09.400896","MEAN_MOTION":15.20726412,"ECCENTRICITY":0.00017451,"INCLINATION":97.4232,"RA_OF_ASC_NODE":170.1222,"ARG_OF_PERICENTER":253.7423,"MEAN_ANOMALY":106.362,"EPHEMERIS_TYPE":0,"CLASSIFICATION_TYPE":"U","NORAD_CAT_ID":66714,"ELEMENT_SET_NO":999,"REV_AT_EPOCH":1934,"BSTAR":0.00087658434,"MEAN_MOTION_DOT":0.0001925,"MEAN_MOTION_DDOT":0},{"OBJECT_NAME":"FLOCK 4H-12","OBJECT_ID":"2025-276BB","EPOCH":"2026-04-05T12:21:59.577696","MEAN_MOTION":15.19634791,"ECCENTRICITY":0.00020007,"INCLINATION":97.4219,"RA_OF_ASC_NODE":170.3843,"ARG_OF_PERICENTER":176.4756,"MEAN_ANOMALY":183.6493,"EPHEMERIS_TYPE":0,"CLASSIFICATION_TYPE":"U","NORAD_CAT_ID":66715,"ELEMENT_SET_NO":999,"REV_AT_EPOCH":1970,"BSTAR":0.00036115073,"MEAN_MOTION_DOT":7.632e-5,"MEAN_MOTION_DDOT":0},{"OBJECT_NAME":"FLOCK 4H-13","OBJECT_ID":"2025-276BC","EPOCH":"2026-04-05T08:49:29.529696","MEAN_MOTION":15.1988216,"ECCENTRICITY":0.00019235,"INCLINATION":97.425,"RA_OF_ASC_NODE":170.3374,"ARG_OF_PERICENTER":145.1838,"MEAN_ANOMALY":214.9523,"EPHEMERIS_TYPE":0,"CLASSIFICATION_TYPE":"U","NORAD_CAT_ID":66716,"ELEMENT_SET_NO":999,"REV_AT_EPOCH":1937,"BSTAR":0.00041863519,"MEAN_MOTION_DOT":8.922e-5,"MEAN_MOTION_DDOT":0},{"OBJECT_NAME":"FLOCK 4H-14","OBJECT_ID":"2025-276BD","EPOCH":"2026-04-05T11:35:15.353376","MEAN_MOTION":15.2018591,"ECCENTRICITY":0.00016908,"INCLINATION":97.4238,"RA_OF_ASC_NODE":170.4654,"ARG_OF_PERICENTER":134.6474,"MEAN_ANOMALY":225.4899,"EPHEMERIS_TYPE":0,"CLASSIFICATION_TYPE":"U","NORAD_CAT_ID":66717,"ELEMENT_SET_NO":999,"REV_AT_EPOCH":1864,"BSTAR":0.00045716789,"MEAN_MOTION_DOT":9.838e-5,"MEAN_MOTION_DDOT":0},{"OBJECT_NAME":"FLOCK 4H-15","OBJECT_ID":"2025-276BE","EPOCH":"2026-04-05T11:04:58.440864","MEAN_MOTION":15.18763757,"ECCENTRICITY":0.00027763,"INCLINATION":97.4249,"RA_OF_ASC_NODE":170.2063,"ARG_OF_PERICENTER":264.9804,"MEAN_ANOMALY":95.1113,"EPHEMERIS_TYPE":0,"CLASSIFICATION_TYPE":"U","NORAD_CAT_ID":66718,"ELEMENT_SET_NO":999,"REV_AT_EPOCH":1937,"BSTAR":0.00041004497,"MEAN_MOTION_DOT":8.459e-5,"MEAN_MOTION_DDOT":0},{"OBJECT_NAME":"FLOCK 4H-16","OBJECT_ID":"2025-276BF","EPOCH":"2026-04-05T04:28:01.552512","MEAN_MOTION":15.18944615,"ECCENTRICITY":0.00029571,"INCLINATION":97.4267,"RA_OF_ASC_NODE":169.9903,"ARG_OF_PERICENTER":248.3382,"MEAN_ANOMALY":111.7537,"EPHEMERIS_TYPE":0,"CLASSIFICATION_TYPE":"U","NORAD_CAT_ID":66719,"ELEMENT_SET_NO":999,"REV_AT_EPOCH":1933,"BSTAR":0.00041350713,"MEAN_MOTION_DOT":8.576e-5,"MEAN_MOTION_DDOT":0},{"OBJECT_NAME":"FLOCK 4H-18","OBJECT_ID":"2025-276BH","EPOCH":"2026-04-05T04:33:24.140736","MEAN_MOTION":15.18933755,"ECCENTRICITY":0.0002284,"INCLINATION":97.4212,"RA_OF_ASC_NODE":169.8889,"ARG_OF_PERICENTER":284.4452,"MEAN_ANOMALY":75.6529,"EPHEMERIS_TYPE":0,"CLASSIFICATION_TYPE":"U","NORAD_CAT_ID":66721,"ELEMENT_SET_NO":999,"REV_AT_EPOCH":1933,"BSTAR":0.00041682428,"MEAN_MOTION_DOT":8.642e-5,"MEAN_MOTION_DDOT":0},{"OBJECT_NAME":"FLOCK 4H-19","OBJECT_ID":"2025-276BJ","EPOCH":"2026-04-05T03:23:59.670240","MEAN_MOTION":15.20262932,"ECCENTRICITY":0.000236,"INCLINATION":97.421,"RA_OF_ASC_NODE":170.1098,"ARG_OF_PERICENTER":145.9658,"MEAN_ANOMALY":214.1729,"EPHEMERIS_TYPE":0,"CLASSIFICATION_TYPE":"U","NORAD_CAT_ID":66722,"ELEMENT_SET_NO":999,"REV_AT_EPOCH":1863,"BSTAR":0.00039560475,"MEAN_MOTION_DOT":8.522e-5,"MEAN_MOTION_DDOT":0},{"OBJECT_NAME":"FLOCK 4H-20","OBJECT_ID":"2025-276BK","EPOCH":"2026-04-05T11:31:48.779616","MEAN_MOTION":15.20303947,"ECCENTRICITY":0.00029446,"INCLINATION":97.4246,"RA_OF_ASC_NODE":170.484,"ARG_OF_PERICENTER":166.4703,"MEAN_ANOMALY":193.6612,"EPHEMERIS_TYPE":0,"CLASSIFICATION_TYPE":"U","NORAD_CAT_ID":66723,"ELEMENT_SET_NO":999,"REV_AT_EPOCH":1864,"BSTAR":0.00055575073,"MEAN_MOTION_DOT":0.00012019,"MEAN_MOTION_DDOT":0},{"OBJECT_NAME":"FLOCK 4H-21","OBJECT_ID":"2025-276BL","EPOCH":"2026-04-05T13:15:37.192320","MEAN_MOTION":15.20008747,"ECCENTRICITY":0.00027673,"INCLINATION":97.4213,"RA_OF_ASC_NODE":170.4806,"ARG_OF_PERICENTER":164.6889,"MEAN_ANOMALY":195.443,"EPHEMERIS_TYPE":0,"CLASSIFICATION_TYPE":"U","NORAD_CAT_ID":66724,"ELEMENT_SET_NO":999,"REV_AT_EPOCH":1865,"BSTAR":0.00038390182,"MEAN_MOTION_DOT":8.206e-5,"MEAN_MOTION_DDOT":0},{"OBJECT_NAME":"FLOCK 4H-22","OBJECT_ID":"2025-276BM","EPOCH":"2026-04-05T07:02:21.825024","MEAN_MOTION":15.19292635,"ECCENTRICITY":0.0001231,"INCLINATION":97.42,"RA_OF_ASC_NODE":170.0428,"ARG_OF_PERICENTER":286.0313,"MEAN_ANOMALY":74.0786,"EPHEMERIS_TYPE":0,"CLASSIFICATION_TYPE":"U","NORAD_CAT_ID":66725,"ELEMENT_SET_NO":999,"REV_AT_EPOCH":1935,"BSTAR":0.00047417,"MEAN_MOTION_DOT":9.945e-5,"MEAN_MOTION_DDOT":0},{"OBJECT_NAME":"FLOCK 4H-23","OBJECT_ID":"2025-276BN","EPOCH":"2026-04-05T04:30:23.828256","MEAN_MOTION":15.18908307,"ECCENTRICITY":0.00031857,"INCLINATION":97.4267,"RA_OF_ASC_NODE":169.9945,"ARG_OF_PERICENTER":236.946,"MEAN_ANOMALY":123.1468,"EPHEMERIS_TYPE":0,"CLASSIFICATION_TYPE":"U","NORAD_CAT_ID":66726,"ELEMENT_SET_NO":999,"REV_AT_EPOCH":1933,"BSTAR":0.0004203245,"MEAN_MOTION_DOT":8.709e-5,"MEAN_MOTION_DDOT":0},{"OBJECT_NAME":"FLOCK 4H-24","OBJECT_ID":"2025-276BP","EPOCH":"2026-04-05T10:37:27.337728","MEAN_MOTION":15.19006227,"ECCENTRICITY":0.00026195,"INCLINATION":97.4262,"RA_OF_ASC_NODE":170.2641,"ARG_OF_PERICENTER":258.2759,"MEAN_ANOMALY":101.8182,"EPHEMERIS_TYPE":0,"CLASSIFICATION_TYPE":"U","NORAD_CAT_ID":66727,"ELEMENT_SET_NO":999,"REV_AT_EPOCH":1937,"BSTAR":0.0004069851,"MEAN_MOTION_DOT":8.454e-5,"MEAN_MOTION_DDOT":0},{"OBJECT_NAME":"FLOCK 4H-25","OBJECT_ID":"2025-276BQ","EPOCH":"2026-04-05T07:13:41.197728","MEAN_MOTION":15.19873132,"ECCENTRICITY":0.0001815,"INCLINATION":97.4224,"RA_OF_ASC_NODE":170.2246,"ARG_OF_PERICENTER":121.172,"MEAN_ANOMALY":238.9693,"EPHEMERIS_TYPE":0,"CLASSIFICATION_TYPE":"U","NORAD_CAT_ID":66728,"ELEMENT_SET_NO":999,"REV_AT_EPOCH":1864,"BSTAR":0.00037717,"MEAN_MOTION_DOT":8.029e-5,"MEAN_MOTION_DDOT":0},{"OBJECT_NAME":"FLOCK 4H-26","OBJECT_ID":"2025-276BR","EPOCH":"2026-04-05T04:42:05.376384","MEAN_MOTION":15.18776558,"ECCENTRICITY":0.00033199,"INCLINATION":97.422,"RA_OF_ASC_NODE":169.9023,"ARG_OF_PERICENTER":256.9956,"MEAN_ANOMALY":103.0908,"EPHEMERIS_TYPE":0,"CLASSIFICATION_TYPE":"U","NORAD_CAT_ID":66729,"ELEMENT_SET_NO":999,"REV_AT_EPOCH":1933,"BSTAR":0.0004051247,"MEAN_MOTION_DOT":8.36e-5,"MEAN_MOTION_DDOT":0}]
