FLOCK 4H-10             
1 66713U 25276AZ  26095.51088915  .00007976  00000+0  38418-3 0  9999
2 66713  97.4220 170.2470 0003190 246.2451 113.8449 15.19005441 19388
FLOCK 4H-11             
1 66714U 25276BA  26095.17094214  .00019250  00000+0  87658-3 0  9999
2 66714  97.4232 170.1222 0001745 253.7423 106.3620 15.20726412 19346
FLOCK 4H-12             
1 66715U 25276BB  26095.51527289  .00007632  00000+0  36115-3 0  9994
2 66715  97.4219 170.3843 0002000 176.4756 183.6493 15.19634791 19700
FLOCK 4H-13             
1 66716U 25276BC  26095.36770289  .00008922  00000+0  41864-3 0  9998
2 66716  97.4250 170.3374 0001923 145.1838 214.9523 15.19882160 19372
FLOCK 4H-14             
1 66717U 25276BD  26095.48281659  .00009838  00000+0  45717-3 0  9998
2 66717  97.4238 170.4654 0001690 134.6474 225.4899 15.20185910 18644
FLOCK 4H-15             
1 66718U 25276BE  26095.46178751  .00008459  00000+0  41004-3 0  9998
2 66718  97.4249 170.2063 0002776 264.9804  95.1113 15.18763757 19379
FLOCK 4H-16             
1 66719U 25276BF  26095.18612908  .00008576  00000+0  41351-3 0  9990
2 66719  97.4267 169.9903 0002957 248.3382 111.7537 15.18944615 19331
FLOCK 4H-18             
1 66721U 25276BH  26095.18986274  .00008642  00000+0  41682-3 0  9994
2 66721  97.4212 169.8889 0002284 284.4452  75.6529 15.18933755 19330
FLOCK 4H-19             
1 66722U 25276BJ  26095.14166285  .00008522  00000+0  39560-3 0  9992
2 66722  97.4210 170.1098 0002360 145.9658 214.1729 15.20262932 18639
FLOCK 4H-20             
1 66723U 25276BK  26095.48042569  .00012019  00000+0  55575-3 0  9998
2 66723  97.4246 170.4840 0002944 166.4703 193.6612 15.20303947 18649
FLOCK 4H-21             
1 66724U 25276BL  26095.55251380  .00008206  00000+0  38390-3 0  9999
2 66724  97.4213 170.4806 0002767 164.6889 195.4430 15.20008747 18653
FLOCK 4H-22             
1 66725U 25276BM  26095.29330816  .00009945  00000+0  47417-3 0  9994
2 66725  97.4200 170.0428 0001231 286.0313  74.0786 15.19292635 19355
FLOCK 4H-23             
1 66726U 25276BN  26095.18777579  .00008709  00000+0  42032-3 0  9999
2 66726  97.4267 169.9945 0003185 236.9460 123.1468 15.18908307 19337
FLOCK 4H-24             
1 66727U 25276BP  26095.44267752  .00008454  00000+0  40699-3 0  9990
2 66727  97.4262 170.2641 0002619 258.2759 101.8182 15.19006227 19371
FLOCK 4H-25             
1 66728U 25276BQ  26095.30117127  .00008029  00000+0  37717-3 0  9991
2 66728  97.4224 170.2246 0001815 121.1720 238.9693 15.19873132 18649
FLOCK 4H-26             
1 66729U 25276BR  26095.19589556  .00008360  00000+0  40512-3 0  9993
2 66729  97.4220 169.9023 0003319 256.9956 103.0908 15.18776558 19334
